#dP2018  1  1  0  0  0.00000000      96 __u+U ITR00 FIT  IAC
## 1982  86400.00000000   900.00000000 58119 0.0000000000000
+   89   C01C02C03C04C05C06C07C08C09C10C11C12C13C14E01E02E03
+        E04E05E07E08E09E11E12E14E18E19E24E26E30G01G02G03G04
+        G05G06G07G08G09G10G11G12G13G14G15G16G17G18G19G20G21
+        G22G23G24G25G26G27G28G29G30G31G32J01J02J03R01R02R03
+        R04R05R06R07R08R09R10R11R13R14R15R16R17R18R19R20R21
+        R22R23R24R26  0  0  0  0  0  0  0  0  0  0  0  0  0
++         0  0  0  0  0  0  0  0  0  0  0  0  0  0  0  0  0
++         0  0  0  0  0  0  0  0  0  0  0  0  0  0  0  0  0
++         0  0  0  0  0  0  0  0  0  0  0  0  0  0  0  0  0
++         0  0  0  0  0  0  0  0  0  0  0  0  0  0  0  0  0
++         0  0  0  0  0  0  0  0  0  0  0  0  0  0  0  0  0
++         0  0  0  0  0  0  0  0  0  0  0  0  0  0  0  0  0
%c M  cc GPS ccc cccc cccc cccc cccc ccccc ccccc ccccc ccccc
%c cc cc ccc ccc cccc cccc cccc cccc ccccc ccccc ccccc ccccc
%f  0.0000000  0.000000000  0.00000000000  0.000000000000000
%f  0.0000000  0.000000000  0.00000000000  0.000000000000000
%i    0    0    0    0      0      0      0      0         0
%i    0    0    0    0      0      0      0      0         0
/*                                                          
/*   RSA / INFORMATION & ANALYSIS CENTER (IAC) OF MCC       
/*   ULTRA-RAPID DETERMINATION                              
/* PCV:IGS14_1977 OL/AL:FES2004  NONE     YN ORB:CoN CLK:CoN
*  2018 01 01 19 15  0.00000000
PC01 -32273.017888  27116.801535    436.132496    185.872704
PC02   4446.036803  41942.408912    626.873506 999999.999999
PC03 -14794.879772  39505.384944   1081.523052 999999.999999
PC04 -39582.438592  14484.366515    573.276854   -208.829384
PC05  21919.323322  36038.461672    735.065468   -109.588315
PC06 -24567.093056  25616.215548 -22774.001616   -667.260515
PC07 -14922.376569  37310.857358 -11921.730727   -259.293499
PC08  -8032.894622  21984.226401  35179.266221     87.793229
PC09  -9398.780915  26250.557106 -31576.583667   -545.786680
PC10  -4385.889044  41687.228599   2246.627970     86.339878
PC11 -18478.028939   7752.527504  19445.870426   -336.479917
PC12 -27034.339106  -5660.783084   3642.832224    368.440812
PC13   5710.579716  30395.214539  28782.942400   -120.295272
PC14 -21592.999935  17460.603029   3114.613280    117.475999
PE01  14236.761376 -17974.640852  18724.343172   -243.210734
PE02 -14223.233329  18007.203604 -18699.454612      0.504074
PE03 -25130.969921  14768.513903  -5122.799415     17.476083
PE04   9056.580861 -19591.079138  20252.335991     52.398234
PE05 -26534.356561   1279.403562  13053.685901    350.013160
PE07  12401.643349  12936.043447 -23558.576951    109.392468
PE08  -8941.007835  19577.022345 -20319.985501   6669.572782
PE09 -12389.285754 -12731.435309  23675.304773   6915.529129
PE11 -19777.652606 -20709.782119  -7516.955909   1854.663559
PE12  -2216.431628 -19853.554283 -21837.330977   3186.655223
PE14  -8466.220479  13803.363035  17726.272163   6654.940785
PE18   1678.231634 -20507.058342 -24847.230464   6536.011864
PE19  25954.953213 -13833.999310   3300.559934     17.906771
PE24  -8132.189880 -23190.592890 -16489.938048   6939.299029
PE26  25723.785755   9622.188495 -11046.395328   6434.652322
PE30  -4365.973423  29245.566903  -1476.420886   6195.246376
PG01 -17460.000182  -4972.732274  19350.106941    -20.931208
PG02  14242.776500  22541.439994  -1146.207114    239.727291
PG03 -18664.325925   6019.814810  17868.198026    -17.288223
PG04   5851.098404 -22956.683945 -11945.985920     29.439859
PG05   8829.721012  14154.215757 -20726.872714    -18.121757
PG06   6031.286930  24356.996842   8711.686227    414.326017
PG07 -10793.441027  11475.195933 -21118.038507    257.639877
PG08 -25015.772608  -5674.952101  -7079.173943    -86.191465
PG09 -20911.757278   9068.176429 -13680.144896    489.116608
PG10   9572.382202 -23796.931574   6622.068200    139.361082
PG11 -22446.030526  -5588.227207  12382.659617   -732.679904
PG12  17677.814674  -2549.505022  19419.547577    357.578805
PG13  19599.470493  12329.421359 -13117.452774    -95.118289
PG14  -4591.904402 -15567.497271  21331.207644    -91.652597
PG15  25896.010256   3553.788729  -5959.850029   -357.405751
PG16  -7563.890718 -13590.160402 -21592.190548     34.691484
PG17  -5734.383362  14257.011523  22031.802145   -134.002015
PG18  15225.374294 -21206.322136  -3767.610076    633.588432
PG19   2732.385160  14959.131471  21471.987391   -466.367988
PG20  18054.003468  -3914.410563 -19221.409680    497.164571
PG21   8460.892970 -14283.295116 -19934.996010   -446.362894
PG22 -16891.039442  -1789.762461  20660.683937   -242.379284
PG23 -26558.196527   1336.275922  -3000.923379   -219.065460
PG24  18721.076571   7466.569981  17331.876311    -44.247802
PG25  18572.631445 -15173.846928  10998.460745   -515.385577
PG26    327.819639 -21466.867617 -15553.153753   -303.222040
PG27 -16431.198458 -12218.614499 -17104.260035    360.022319
PG28 -13323.189960  22628.266487   4724.031565    676.100403
PG29  23977.335954  -4543.147010 -10477.839822    517.119578
PG30  -4457.467053  19852.002749 -16990.086904    116.103526
PG31  -5827.810127 -24501.919268   7779.101604    151.525946
PG32   4059.144964 -15034.570954  21530.663921   -531.968664
PJ01 -33263.080026  25399.257659  10191.303247   -177.341111
PJ02      0.000000      0.000000      0.000000 999999.999999
PJ03 -28448.419577  27163.069506  20336.637465      0.766479
PR01   4567.800414 -14759.070942  20295.639315     20.104630
PR02 -13648.503282  -3304.768087  21335.140089    288.035077
PR03 -22140.263602   9084.423443   8915.657291    120.208828
PR04 -17398.435622  16295.150205  -9091.686461    244.353579
PR05  -2923.124208  14135.803118 -21043.271373   -222.493128
PR06  14386.158248   2662.312738 -20905.028550    124.343997
PR07  22150.991357  -9316.605321  -8481.152503    -26.347337
PR08  17770.958916 -16188.822970   8573.673705    -27.022858
PR09   9147.770952  15498.260821  18064.286072     48.082698
PR10  10403.504722  -3750.678794  22974.922809     15.003260
PR11   5920.092444 -20612.561985  13859.226502    -18.346384
PR13  -9467.315093 -14533.340227 -18719.081848     -6.083476
PR14 -10681.636880   3326.582878 -22908.508585     23.511473
PR15  -6964.107549  18188.500972 -16522.345522     -4.692467
PR16   2491.493645  25325.788924   2469.687600     82.428429
PR17 -21352.782465  -4373.780701  13234.185953     97.654792
PR18  -9626.006470   6665.360888  22687.710456    179.488306
PR19   7778.172135  14420.653876  19555.787463    -39.638638
PR20  21113.139895  13724.025443   3922.118141   -321.798454
PR21  21298.403869   4292.202211 -13381.701494     17.095317
PR22   7790.459289  -7722.941225 -23010.675457     -6.684317
PR23 -10980.358032 -14881.968451 -17570.153387    127.766877
PR24 -21585.360090 -13188.573622  -3355.402177   -160.537540
PR26  21415.018565  13331.083871   3885.690385     -9.353138
EOF
